{
  "type": "FeatureCollection",
  "features": [
    {
      "type": "Feature",
      "properties": {
        "norad_id": 66519,
        "name": "STARLINK-35931",
        "group": "last-30-days",
        "lat": -42.44979988984544,
        "lon": 13.8186397413357,
        "alt_km": 368.9177752475034,
        "timestamp": "2025-12-06T03:35:00.473527+00:00",
        "meta_object_name": "STARLINK-35931",
        "meta_object_id": "2025-265D",
        "meta_epoch": "2025-12-05T06:00:02.000160",
        "meta_mean_motion": 15.70635165,
        "meta_eccentricity": 0.00016153,
        "meta_inclination": 43,
        "meta_ra_of_asc_node": 98.2257,
        "meta_arg_of_pericenter": 279.0378,
        "meta_mean_anomaly": 313.9285,
        "meta_ephemeris_type": 0,
        "meta_classification_type": "U",
        "meta_norad_cat_id": 66519,
        "meta_element_set_no": 999,
        "meta_rev_at_epoch": 379,
        "meta_bstar": -0.016669854,
        "meta_mean_motion_dot": -0.0188485,
        "meta_mean_motion_ddot": 0,
        "tle_line1": "1 66519U 25265D   25339.25002315 -.01884850  00000+0 -16670-1 0  9993",
        "tle_line2": "2 66519  43.0000  98.2257 0001615 279.0378 313.9285 15.70635165  3797"
      },
      "geometry": {
        "type": "Point",
        "coordinates": [
          13.8186397413357,
          -42.44979988984544
        ]
      }
    },
    {
      "type": "Feature",
      "properties": {
        "norad_id": 66520,
        "name": "STARLINK-35952",
        "group": "last-30-days",
        "lat": -42.156046548371265,
        "lon": 16.508008091842417,
        "alt_km": 368.9414202770213,
        "timestamp": "2025-12-06T03:35:00.473537+00:00",
        "meta_object_name": "STARLINK-35952",
        "meta_object_id": "2025-265E",
        "meta_epoch": "2025-12-05T06:00:02.000160",
        "meta_mean_motion": 15.70701904,
        "meta_eccentricity": 0.00012982,
        "meta_inclination": 42.9999,
        "meta_ra_of_asc_node": 98.221,
        "meta_arg_of_pericenter": 269.4141,
        "meta_mean_anomaly": 325.358,
        "meta_ephemeris_type": 0,
        "meta_classification_type": "U",
        "meta_norad_cat_id": 66520,
        "meta_element_set_no": 999,
        "meta_rev_at_epoch": 379,
        "meta_bstar": -0.016659086,
        "meta_mean_motion_dot": -0.01888277,
        "meta_mean_motion_ddot": 0,
        "tle_line1": "1 66520U 25265E   25339.25002315 -.01888277  00000+0 -16659-1 0  9999",
        "tle_line2": "2 66520  42.9999  98.2210 0001298 269.4141 325.3580 15.70701904  3791"
      },
      "geometry": {
        "type": "Point",
        "coordinates": [
          16.508008091842417,
          -42.156046548371265
        ]
      }
    },
    {
      "type": "Feature",
      "properties": {
        "norad_id": 66521,
        "name": "STARLINK-35915",
        "group": "last-30-days",
        "lat": -41.819563377034115,
        "lon": 19.035369682903436,
        "alt_km": 368.9492624025279,
        "timestamp": "2025-12-06T03:35:00.473549+00:00",
        "meta_object_name": "STARLINK-35915",
        "meta_object_id": "2025-265F",
        "meta_epoch": "2025-12-05T06:00:02.000160",
        "meta_mean_motion": 15.70706698,
        "meta_eccentricity": 0.00013009,
        "meta_inclination": 42.9999,
        "meta_ra_of_asc_node": 98.2162,
        "meta_arg_of_pericenter": 267.9245,
        "meta_mean_anomaly": 328.7613,
        "meta_ephemeris_type": 0,
        "meta_classification_type": "U",
        "meta_norad_cat_id": 66521,
        "meta_element_set_no": 999,
        "meta_rev_at_epoch": 379,
        "meta_bstar": -0.01670306,
        "meta_mean_motion_dot": -0.01893047,
        "meta_mean_motion_ddot": 0,
        "tle_line1": "1 66521U 25265F   25339.25002315 -.01893047  00000+0 -16703-1 0  9991",
        "tle_line2": "2 66521  42.9999  98.2162 0001300 267.9245 328.7613 15.70706698  3799"
      },
      "geometry": {
        "type": "Point",
        "coordinates": [
          19.035369682903436,
          -41.819563377034115
        ]
      }
    },
    {
      "type": "Feature",
      "properties": {
        "norad_id": 66522,
        "name": "STARLINK-35946",
        "group": "last-30-days",
        "lat": -41.427276044672944,
        "lon": 21.538223182970402,
        "alt_km": 368.93679475393765,
        "timestamp": "2025-12-06T03:35:00.473559+00:00",
        "meta_object_name": "STARLINK-35946",
        "meta_object_id": "2025-265G",
        "meta_epoch": "2025-12-05T06:00:02.000160",
        "meta_mean_motion": 15.70703945,
        "meta_eccentricity": 0.00013016,
        "meta_inclination": 42.9998,
        "meta_ra_of_asc_node": 98.2113,
        "meta_arg_of_pericenter": 268.1956,
        "meta_mean_anomaly": 330.4103,
        "meta_ephemeris_type": 0,
        "meta_classification_type": "U",
        "meta_norad_cat_id": 66522,
        "meta_element_set_no": 999,
        "meta_rev_at_epoch": 379,
        "meta_bstar": -0.016686337,
        "meta_mean_motion_dot": -0.01891168,
        "meta_mean_motion_ddot": 0,
        "tle_line1": "1 66522U 25265G   25339.25002315 -.01891168  00000+0 -16686-1 0  9994",
        "tle_line2": "2 66522  42.9998  98.2113 0001301 268.1956 330.4103 15.70703945  3794"
      },
      "geometry": {
        "type": "Point",
        "coordinates": [
          21.538223182970402,
          -41.427276044672944
        ]
      }
    },
    {
      "type": "Feature",
      "properties": {
        "norad_id": 66523,
        "name": "STARLINK-35969",
        "group": "last-30-days",
        "lat": -40.9805766191067,
        "lon": 24.014656229598117,
        "alt_km": 369.01983049363025,
        "timestamp": "2025-12-06T03:35:00.473590+00:00",
        "meta_object_name": "STARLINK-35969",
        "meta_object_id": "2025-265H",
        "meta_epoch": "2025-12-05T06:00:02.000160",
        "meta_mean_motion": 15.70702474,
        "meta_eccentricity": 0.0001203,
        "meta_inclination": 43.0001,
        "meta_ra_of_asc_node": 98.2067,
        "meta_arg_of_pericenter": 264.5981,
        "meta_mean_anomaly": 335.926,
        "meta_ephemeris_type": 0,
        "meta_classification_type": "U",
        "meta_norad_cat_id": 66523,
        "meta_element_set_no": 999,
        "meta_rev_at_epoch": 379,
        "meta_bstar": -0.016667534,
        "meta_mean_motion_dot": -0.01889099,
        "meta_mean_motion_ddot": 0,
        "tle_line1": "1 66523U 25265H   25339.25002315 -.01889099  00000+0 -16668-1 0  9995",
        "tle_line2": "2 66523  43.0001  98.2067 0001203 264.5981 335.9260 15.70702474  3799"
      },
      "geometry": {
        "type": "Point",
        "coordinates": [
          24.014656229598117,
          -40.9805766191067
        ]
      }
    },
    {
      "type": "Feature",
      "properties": {
        "norad_id": 66524,
        "name": "STARLINK-35687",
        "group": "last-30-days",
        "lat": -40.48218955975547,
        "lon": 26.44922058425951,
        "alt_km": 368.9317451022607,
        "timestamp": "2025-12-06T03:35:00.473604+00:00",
        "meta_object_name": "STARLINK-35687",
        "meta_object_id": "2025-265J",
        "meta_epoch": "2025-12-05T06:00:02.000160",
        "meta_mean_motion": 15.70701866,
        "meta_eccentricity": 0.00012812,
        "meta_inclination": 42.9999,
        "meta_ra_of_asc_node": 98.2014,
        "meta_arg_of_pericenter": 266.9766,
        "meta_mean_anomaly": 335.4644,
        "meta_ephemeris_type": 0,
        "meta_classification_type": "U",
        "meta_norad_cat_id": 66524,
        "meta_element_set_no": 999,
        "meta_rev_at_epoch": 379,
        "meta_bstar": -0.016659099,
        "meta_mean_motion_dot": -0.01888263,
        "meta_mean_motion_ddot": 0,
        "tle_line1": "1 66524U 25265J   25339.25002315 -.01888263  00000+0 -16659-1 0  9998",
        "tle_line2": "2 66524  42.9999  98.2014 0001281 266.9766 335.4644 15.70701866  3794"
      },
      "geometry": {
        "type": "Point",
        "coordinates": [
          26.44922058425951,
          -40.48218955975547
        ]
      }
    },
    {
      "type": "Feature",
      "properties": {
        "norad_id": 66525,
        "name": "STARLINK-35975",
        "group": "last-30-days",
        "lat": -39.9316435853169,
        "lon": 28.85446357753031,
        "alt_km": 368.868682232378,
        "timestamp": "2025-12-06T03:35:00.473614+00:00",
        "meta_object_name": "STARLINK-35975",
        "meta_object_id": "2025-265K",
        "meta_epoch": "2025-12-05T06:00:02.000160",
        "meta_mean_motion": 15.70702344,
        "meta_eccentricity": 0.00013867,
        "meta_inclination": 42.9999,
        "meta_ra_of_asc_node": 98.1969,
        "meta_arg_of_pericenter": 264.3712,
        "meta_mean_anomaly": 339.9853,
        "meta_ephemeris_type": 0,
        "meta_classification_type": "U",
        "meta_norad_cat_id": 66525,
        "meta_element_set_no": 999,
        "meta_rev_at_epoch": 379,
        "meta_bstar": -0.016646118,
        "meta_mean_motion_dot": -0.01887066,
        "meta_mean_motion_ddot": 0,
        "tle_line1": "1 66525U 25265K   25339.25002315 -.01887066  00000+0 -16646-1 0  9995",
        "tle_line2": "2 66525  42.9999  98.1969 0001386 264.3712 339.9853 15.70702344  3795"
      },
      "geometry": {
        "type": "Point",
        "coordinates": [
          28.85446357753031,
          -39.9316435853169
        ]
      }
    }
  ]
}